$GPGSV,2,1,08,05,55,120,42,07,34,210,38,13,21,300,35,15,60,045,44*7D
$GPGSV,2,2,08,18,12,090,30,20,48,270,41,24,08,180,28,30,29,330,37*7E
$GPGGA,073000.00,4000.9000,N,10516.2300,W,1,08,1.02,1624.0,M,-21.3,M,,*52
$GPRMC,073000.00,A,4000.9000,N,10516.2300,W,5.83,90.0,080726,,,A*4B
$GPGGA,073001.00,4000.9000,N,10516.2279,W,1,08,1.02,1624.0,M,-21.3,M,,*5C
$GPRMC,073001.00,A,4000.9000,N,10516.2279,W,5.83,90.0,080726,,,A*45
$GPGGA,073002.00,4000.9000,N,10516.2258,W,1,08,1.02,1624.0,M,-21.3,M,,*5C
$GPRMC,073002.00,A,4000.9000,N,10516.2258,W,5.83,90.0,080726,,,A*45
$GPGGA,073003.00,4000.9000,N,10516.2237,W,1,08,1.02,1624.1,M,-21.3,M,,*55
$GPRMC,073003.00,A,4000.9000,N,10516.2237,W,5.83,90.0,080726,,,A*4D
$GPGGA,073004.00,4000.9000,N,10516.2216,W,1,08,1.02,1624.1,M,-21.3,M,,*51
$GPRMC,073004.00,A,4000.9000,N,10516.2216,W,5.83,90.0,080726,,,A*49
$GPGGA,073005.00,4000.9000,N,10516.2194,W,1,08,1.02,1624.1,M,-21.3,M,,*59
$GPRMC,073005.00,A,4000.9000,N,10516.2194,W,5.83,90.0,080726,,,A*41
$GPGGA,073006.00,4000.9000,N,10516.2173,W,1,08,1.02,1624.1,M,-21.3,M,,*53
$GPRMC,073006.00,A,4000.9000,N,10516.2173,W,5.83,90.0,080726,,,A*4B
$GPGGA,073007.00,4000.9000,N,10516.2152,W,1,08,1.02,1624.2,M,-21.3,M,,*52
$GPRMC,073007.00,A,4000.9000,N,10516.2152,W,5.83,90.0,080726,,,A*49
$GPGGA,073008.00,4000.9000,N,10516.2131,W,1,08,1.02,1624.2,M,-21.3,M,,*58
$GPRMC,073008.00,A,4000.9000,N,10516.2131,W,5.83,90.0,080726,,,A*43
$GPGGA,073009.00,4000.9000,N,10516.2110,W,1,08,1.02,1624.2,M,-21.3,M,,*5A
$GPRMC,073009.00,A,4000.9000,N,10516.2110,W,5.83,90.0,080726,,,A*41
$GPGGA,073010.00,4000.9000,N,10516.2089,W,1,08,1.02,1624.2,M,-21.3,M,,*53
$GPRMC,073010.00,A,4000.9000,N,10516.2089,W,5.83,90.0,080726,,,A*48
$GPGGA,073011.00,4000.9000,N,10516.2068,W,1,08,1.02,1624.3,M,-21.3,M,,*5C
$GPRMC,073011.00,A,4000.9000,N,10516.2068,W,5.83,90.0,080726,,,A*46
$GPGGA,073012.00,4000.9000,N,10516.2047,W,1,08,1.02,1624.3,M,-21.3,M,,*52
$GPRMC,073012.00,A,4000.9000,N,10516.2047,W,5.83,90.0,080726,,,A*48
$GPGGA,073013.00,4000.9000,N,10516.2026,W,1,08,1.02,1624.3,M,-21.3,M,,*54
$GPRMC,073013.00,A,4000.9000,N,10516.2026,W,5.83,90.0,080726,,,A*4E
$GPGGA,073014.00,4000.9000,N,10516.2004,W,1,08,1.02,1624.3,M,-21.3,M,,*53
$GPRMC,073014.00,A,4000.9000,N,10516.2004,W,5.83,90.0,080726,,,A*49
$GPGGA,073015.00,4000.9000,N,10516.1983,W,1,08,1.02,1624.3,M,-21.3,M,,*57
$GPRMC,073015.00,A,4000.9000,N,10516.1983,W,5.83,90.0,080726,,,A*4D
$GPGGA,073016.00,4000.9000,N,10516.1962,W,1,08,1.02,1624.4,M,-21.3,M,,*5C
$GPRMC,073016.00,A,4000.9000,N,10516.1962,W,5.83,90.0,080726,,,A*41
$GPGGA,073017.00,4000.9000,N,10516.1941,W,1,08,1.02,1624.4,M,-21.3,M,,*5C
$GPRMC,073017.00,A,4000.9000,N,10516.1941,W,5.83,90.0,080726,,,A*41
$GPGGA,073018.00,4000.9000,N,10516.1920,W,1,08,1.02,1624.4,M,-21.3,M,,*54
$GPRMC,073018.00,A,4000.9000,N,10516.1920,W,5.83,90.0,080726,,,A*49
$GPGGA,073019.00,4000.9000,N,10516.1899,W,1,08,1.02,1624.4,M,-21.3,M,,*56
$GPRMC,073019.00,A,4000.9000,N,10516.1899,W,5.83,90.0,080726,,,A*4B
$GPGGA,073020.00,4000.9000,N,10516.1878,W,1,08,1.02,1624.4,M,-21.3,M,,*53
$GPRMC,073020.00,A,4000.9000,N,10516.1878,W,5.83,90.0,080726,,,A*4E
$GPGGA,073021.00,4000.9000,N,10516.1857,W,1,08,1.02,1624.4,M,-21.3,M,,*5F
$GPRMC,073021.00,A,4000.9000,N,10516.1857,W,5.83,90.0,080726,,,A*42
$GPGGA,073022.00,4000.9000,N,10516.1836,W,1,08,1.02,1624.4,M,-21.3,M,,*5B
$GPRMC,073022.00,A,4000.9000,N,10516.1836,W,5.83,90.0,080726,,,A*46
$GPGGA,073023.00,4000.9000,N,10516.1814,W,1,08,1.02,1624.5,M,-21.3,M,,*5B
$GPRMC,073023.00,A,4000.9000,N,10516.1814,W,5.83,90.0,080726,,,A*47
$GPGGA,073024.00,4000.9000,N,10516.1793,W,1,08,1.02,1624.5,M,-21.3,M,,*5C
$GPRMC,073024.00,A,4000.9000,N,10516.1793,W,5.83,90.0,080726,,,A*40
$GPGGA,073025.00,4000.9000,N,10516.1772,W,1,08,1.02,1624.5,M,-21.3,M,,*52
$GPRMC,073025.00,A,4000.9000,N,10516.1772,W,5.83,90.0,080726,,,A*4E
$GPGGA,073026.00,4000.9000,N,10516.1751,W,1,08,1.02,1624.5,M,-21.3,M,,*50
$GPRMC,073026.00,A,4000.9000,N,10516.1751,W,5.83,90.0,080726,,,A*4C
$GPGGA,073027.00,4000.9000,N,10516.1730,W,1,08,1.02,1624.5,M,-21.3,M,,*56
$GPRMC,073027.00,A,4000.9000,N,10516.1730,W,5.83,90.0,080726,,,A*4A
$GPGGA,073028.00,4000.9000,N,10516.1709,W,1,08,1.02,1624.5,M,-21.3,M,,*53
$GPRMC,073028.00,A,4000.9000,N,10516.1709,W,5.83,90.0,080726,,,A*4F
$GPGGA,073029.00,4000.9000,N,10516.1688,W,1,08,1.02,1624.5,M,-21.3,M,,*5A
$GPRMC,073029.00,A,4000.9000,N,10516.1688,W,5.83,90.0,080726,,,A*46
$GPGGA,073030.00,4000.9000,N,10516.1667,W,1,08,1.02,1624.5,M,-21.3,M,,*53
$GPRMC,073030.00,A,4000.9000,N,10516.1667,W,5.83,0.0,080726,,,A*76
$GPGGA,073031.00,4000.9016,N,10516.1667,W,1,08,1.02,1624.5,M,-21.3,M,,*55
$GPRMC,073031.00,A,4000.9016,N,10516.1667,W,5.83,0.0,080726,,,A*70
$GPGGA,073032.00,4000.9032,N,10516.1667,W,1,08,1.02,1624.5,M,-21.3,M,,*50
$GPRMC,073032.00,A,4000.9032,N,10516.1667,W,5.83,0.0,080726,,,A*75
$GPGGA,073033.00,4000.9049,N,10516.1667,W,1,08,1.02,1624.5,M,-21.3,M,,*5D
$GPRMC,073033.00,A,4000.9049,N,10516.1667,W,5.83,0.0,080726,,,A*78
$GPGGA,073034.00,4000.9065,N,10516.1667,W,1,08,1.02,1624.5,M,-21.3,M,,*54
$GPRMC,073034.00,A,4000.9065,N,10516.1667,W,5.83,0.0,080726,,,A*71
$GPGGA,073035.00,4000.9081,N,10516.1667,W,1,08,1.02,1624.5,M,-21.3,M,,*5F
$GPRMC,073035.00,A,4000.9081,N,10516.1667,W,5.83,0.0,080726,,,A*7A
$GPGGA,073036.00,4000.9097,N,10516.1667,W,1,08,1.02,1624.5,M,-21.3,M,,*5B
$GPRMC,073036.00,A,4000.9097,N,10516.1667,W,5.83,0.0,080726,,,A*7E
$GPGGA,073037.00,4000.9113,N,10516.1667,W,1,08,1.02,1624.5,M,-21.3,M,,*57
$GPRMC,073037.00,A,4000.9113,N,10516.1667,W,5.83,0.0,080726,,,A*72
$GPGGA,073038.00,4000.9129,N,10516.1667,W,1,08,1.02,1624.5,M,-21.3,M,,*51
$GPRMC,073038.00,A,4000.9129,N,10516.1667,W,5.83,0.0,080726,,,A*74
$GPGGA,073039.00,4000.9146,N,10516.1667,W,1,08,1.02,1624.5,M,-21.3,M,,*59
$GPRMC,073039.00,A,4000.9146,N,10516.1667,W,5.83,0.0,080726,,,A*7C
$GPGGA,073040.00,4000.9162,N,10516.1667,W,1,08,1.02,1624.5,M,-21.3,M,,*51
$GPRMC,073040.00,A,4000.9162,N,10516.1667,W,5.83,0.0,080726,,,A*74
$GPGGA,073041.00,4000.9178,N,10516.1667,W,1,08,1.02,1624.4,M,-21.3,M,,*5A
$GPRMC,073041.00,A,4000.9178,N,10516.1667,W,5.83,0.0,080726,,,A*7E
$GPGGA,073042.00,4000.9194,N,10516.1667,W,1,08,1.02,1624.4,M,-21.3,M,,*5B
$GPRMC,073042.00,A,4000.9194,N,10516.1667,W,5.83,0.0,080726,,,A*7F
$GPGGA,073043.00,4000.9210,N,10516.1667,W,1,08,1.02,1624.4,M,-21.3,M,,*55
$GPRMC,073043.00,A,4000.9210,N,10516.1667,W,5.83,0.0,080726,,,A*71
$GPGGA,073044.00,4000.9226,N,10516.1667,W,1,08,1.02,1624.4,M,-21.3,M,,*57
$GPRMC,073044.00,A,4000.9226,N,10516.1667,W,5.83,0.0,080726,,,A*73
$GPGGA,073045.00,4000.9243,N,10516.1667,W,1,08,1.02,1624.4,M,-21.3,M,,*55
$GPRMC,073045.00,A,4000.9243,N,10516.1667,W,5.83,0.0,080726,,,A*71
$GPGGA,073046.00,4000.9259,N,10516.1667,W,1,08,1.02,1624.4,M,-21.3,M,,*5D
$GPRMC,073046.00,A,4000.9259,N,10516.1667,W,5.83,0.0,080726,,,A*79
$GPGGA,073047.00,4000.9275,N,10516.1667,W,1,08,1.02,1624.4,M,-21.3,M,,*52
$GPRMC,073047.00,A,4000.9275,N,10516.1667,W,5.83,0.0,080726,,,A*76
$GPGGA,073048.00,4000.9291,N,10516.1667,W,1,08,1.02,1624.3,M,-21.3,M,,*50
$GPRMC,073048.00,A,4000.9291,N,10516.1667,W,5.83,0.0,080726,,,A*73
$GPGGA,073049.00,4000.9307,N,10516.1667,W,1,08,1.02,1624.3,M,-21.3,M,,*5F
$GPRMC,073049.00,A,4000.9307,N,10516.1667,W,5.83,0.0,080726,,,A*7C
$GPGGA,073050.00,4000.9323,N,10516.1667,W,1,08,1.02,1624.3,M,-21.3,M,,*51
$GPRMC,073050.00,A,4000.9323,N,10516.1667,W,5.83,0.0,080726,,,A*72
$GPGGA,073051.00,4000.9340,N,10516.1667,W,1,08,1.02,1624.3,M,-21.3,M,,*55
$GPRMC,073051.00,A,4000.9340,N,10516.1667,W,5.83,0.0,080726,,,A*76
$GPGGA,073052.00,4000.9356,N,10516.1667,W,1,08,1.02,1624.3,M,-21.3,M,,*51
$GPRMC,073052.00,A,4000.9356,N,10516.1667,W,5.83,0.0,080726,,,A*72
$GPGGA,073053.00,4000.9372,N,10516.1667,W,1,08,1.02,1624.2,M,-21.3,M,,*57
$GPRMC,073053.00,A,4000.9372,N,10516.1667,W,5.83,0.0,080726,,,A*75
$GPGGA,073054.00,4000.9388,N,10516.1667,W,1,08,1.02,1624.2,M,-21.3,M,,*55
$GPRMC,073054.00,A,4000.9388,N,10516.1667,W,5.83,0.0,080726,,,A*77
$GPGGA,073055.00,4000.9404,N,10516.1667,W,1,08,1.02,1624.2,M,-21.3,M,,*57
$GPRMC,073055.00,A,4000.9404,N,10516.1667,W,5.83,0.0,080726,,,A*75
$GPGGA,073056.00,4000.9420,N,10516.1667,W,1,08,1.02,1624.2,M,-21.3,M,,*52
$GPRMC,073056.00,A,4000.9420,N,10516.1667,W,5.83,0.0,080726,,,A*70
$GPGGA,073057.00,4000.9437,N,10516.1667,W,1,08,1.02,1624.1,M,-21.3,M,,*56
$GPRMC,073057.00,A,4000.9437,N,10516.1667,W,5.83,0.0,080726,,,A*77
$GPGGA,073058.00,4000.9453,N,10516.1667,W,1,08,1.02,1624.1,M,-21.3,M,,*5B
$GPRMC,073058.00,A,4000.9453,N,10516.1667,W,5.83,0.0,080726,,,A*7A
$GPGGA,073059.00,4000.9469,N,10516.1667,W,1,08,1.02,1624.1,M,-21.3,M,,*53
$GPRMC,073059.00,A,4000.9469,N,10516.1667,W,5.83,0.0,080726,,,A*72
$GPGGA,073100.00,4000.9485,N,10516.1667,W,1,08,1.02,1624.1,M,-21.3,M,,*5C
$GPRMC,073100.00,A,4000.9485,N,10516.1667,W,5.83,270.0,080726,,,A*78
$GPGGA,073101.00,4000.9485,N,10516.1688,W,1,08,1.02,1624.0,M,-21.3,M,,*5D
$GPRMC,073101.00,A,4000.9485,N,10516.1688,W,5.83,270.0,080726,,,A*78
$GPGGA,073102.00,4000.9485,N,10516.1709,W,1,08,1.02,1624.0,M,-21.3,M,,*56
$GPRMC,073102.00,A,4000.9485,N,10516.1709,W,5.83,270.0,080726,,,A*73
$GPGGA,073103.00,4000.9485,N,10516.1730,W,1,08,1.02,1624.0,M,-21.3,M,,*5D
$GPRMC,073103.00,A,4000.9485,N,10516.1730,W,5.83,270.0,080726,,,A*78
$GPGGA,073104.00,4000.9485,N,10516.1751,W,1,08,1.02,1624.0,M,-21.3,M,,*5D
$GPRMC,073104.00,A,4000.9485,N,10516.1751,W,5.83,270.0,080726,,,A*78
$GPGGA,073105.00,4000.9485,N,10516.1772,W,1,08,1.02,1623.9,M,-21.3,M,,*53
$GPRMC,073105.00,A,4000.9485,N,10516.1772,W,5.83,270.0,080726,,,A*78
$GPGGA,073106.00,4000.9485,N,10516.1793,W,1,08,1.02,1623.9,M,-21.3,M,,*5F
$GPRMC,073106.00,A,4000.9485,N,10516.1793,W,5.83,270.0,080726,,,A*74
$GPGGA,073107.00,4000.9485,N,10516.1814,W,1,08,1.02,1623.9,M,-21.3,M,,*5E
$GPRMC,073107.00,A,4000.9485,N,10516.1814,W,5.83,270.0,080726,,,A*75
$GPGGA,073108.00,4000.9485,N,10516.1836,W,1,08,1.02,1623.9,M,-21.3,M,,*51
$GPRMC,073108.00,A,4000.9485,N,10516.1836,W,5.83,270.0,080726,,,A*7A
$GPGGA,073109.00,4000.9485,N,10516.1857,W,1,08,1.02,1623.8,M,-21.3,M,,*56
$GPRMC,073109.00,A,4000.9485,N,10516.1857,W,5.83,270.0,080726,,,A*7C
$GPGGA,073110.00,4000.9485,N,10516.1878,W,1,08,1.02,1623.8,M,-21.3,M,,*53
$GPRMC,073110.00,A,4000.9485,N,10516.1878,W,5.83,270.0,080726,,,A*79
$GPGGA,073111.00,4000.9485,N,10516.1899,W,1,08,1.02,1623.8,M,-21.3,M,,*5D
$GPRMC,073111.00,A,4000.9485,N,10516.1899,W,5.83,270.0,080726,,,A*77
$GPGGA,073112.00,4000.9485,N,10516.1920,W,1,08,1.02,1623.8,M,-21.3,M,,*5D
$GPRMC,073112.00,A,4000.9485,N,10516.1920,W,5.83,270.0,080726,,,A*77
$GPGGA,073113.00,4000.9485,N,10516.1941,W,1,08,1.02,1623.8,M,-21.3,M,,*5B
$GPRMC,073113.00,A,4000.9485,N,10516.1941,W,5.83,270.0,080726,,,A*71
$GPGGA,073114.00,4000.9485,N,10516.1962,W,1,08,1.02,1623.7,M,-21.3,M,,*52
$GPRMC,073114.00,A,4000.9485,N,10516.1962,W,5.83,270.0,080726,,,A*77
$GPGGA,073115.00,4000.9485,N,10516.1983,W,1,08,1.02,1623.7,M,-21.3,M,,*5C
$GPRMC,073115.00,A,4000.9485,N,10516.1983,W,5.83,270.0,080726,,,A*79
$GPGGA,073116.00,4000.9485,N,10516.2004,W,1,08,1.02,1623.7,M,-21.3,M,,*5A
$GPRMC,073116.00,A,4000.9485,N,10516.2004,W,5.83,270.0,080726,,,A*7F
$GPGGA,073117.00,4000.9485,N,10516.2026,W,1,08,1.02,1623.7,M,-21.3,M,,*5B
$GPRMC,073117.00,A,4000.9485,N,10516.2026,W,5.83,270.0,080726,,,A*7E
$GPGGA,073118.00,4000.9485,N,10516.2047,W,1,08,1.02,1623.7,M,-21.3,M,,*53
$GPRMC,073118.00,A,4000.9485,N,10516.2047,W,5.83,270.0,080726,,,A*76
$GPGGA,073119.00,4000.9485,N,10516.2068,W,1,08,1.02,1623.6,M,-21.3,M,,*5E
$GPRMC,073119.00,A,4000.9485,N,10516.2068,W,5.83,270.0,080726,,,A*7A
$GPGGA,073120.00,4000.9485,N,10516.2089,W,1,08,1.02,1623.6,M,-21.3,M,,*5B
$GPRMC,073120.00,A,4000.9485,N,10516.2089,W,5.83,270.0,080726,,,A*7F
$GPGGA,073121.00,4000.9485,N,10516.2110,W,1,08,1.02,1623.6,M,-21.3,M,,*5B
$GPRMC,073121.00,A,4000.9485,N,10516.2110,W,5.83,270.0,080726,,,A*7F
$GPGGA,073122.00,4000.9485,N,10516.2131,W,1,08,1.02,1623.6,M,-21.3,M,,*5B
$GPRMC,073122.00,A,4000.9485,N,10516.2131,W,5.83,270.0,080726,,,A*7F
$GPGGA,073123.00,4000.9485,N,10516.2152,W,1,08,1.02,1623.6,M,-21.3,M,,*5F
$GPRMC,073123.00,A,4000.9485,N,10516.2152,W,5.83,270.0,080726,,,A*7B
$GPGGA,073124.00,4000.9485,N,10516.2173,W,1,08,1.02,1623.6,M,-21.3,M,,*5B
$GPRMC,073124.00,A,4000.9485,N,10516.2173,W,5.83,270.0,080726,,,A*7F
$GPGGA,073125.00,4000.9485,N,10516.2194,W,1,08,1.02,1623.6,M,-21.3,M,,*53
$GPRMC,073125.00,A,4000.9485,N,10516.2194,W,5.83,270.0,080726,,,A*77
$GPGGA,073126.00,4000.9485,N,10516.2216,W,1,08,1.02,1623.5,M,-21.3,M,,*5A
$GPRMC,073126.00,A,4000.9485,N,10516.2216,W,5.83,270.0,080726,,,A*7D
$GPGGA,073127.00,4000.9485,N,10516.2237,W,1,08,1.02,1623.5,M,-21.3,M,,*58
$GPRMC,073127.00,A,4000.9485,N,10516.2237,W,5.83,270.0,080726,,,A*7F
$GPGGA,073128.00,4000.9485,N,10516.2258,W,1,08,1.02,1623.5,M,-21.3,M,,*5E
$GPRMC,073128.00,A,4000.9485,N,10516.2258,W,5.83,270.0,080726,,,A*79
$GPGGA,073129.00,4000.9485,N,10516.2279,W,1,08,1.02,1623.5,M,-21.3,M,,*5C
$GPRMC,073129.00,A,4000.9485,N,10516.2279,W,5.83,270.0,080726,,,A*7B
$GPGGA,073130.00,4000.9485,N,10516.2300,W,1,08,1.02,1623.5,M,-21.3,M,,*5B
$GPRMC,073130.00,A,4000.9485,N,10516.2300,W,5.83,180.0,080726,,,A*70
$GPGGA,073131.00,4000.9469,N,10516.2300,W,1,08,1.02,1623.5,M,-21.3,M,,*58
$GPRMC,073131.00,A,4000.9469,N,10516.2300,W,5.83,180.0,080726,,,A*73
$GPGGA,073132.00,4000.9453,N,10516.2300,W,1,08,1.02,1623.5,M,-21.3,M,,*52
$GPRMC,073132.00,A,4000.9453,N,10516.2300,W,5.83,180.0,080726,,,A*79
$GPGGA,073133.00,4000.9437,N,10516.2300,W,1,08,1.02,1623.5,M,-21.3,M,,*51
$GPRMC,073133.00,A,4000.9437,N,10516.2300,W,5.83,180.0,080726,,,A*7A
$GPGGA,073134.00,4000.9420,N,10516.2300,W,1,08,1.02,1623.5,M,-21.3,M,,*50
$GPRMC,073134.00,A,4000.9420,N,10516.2300,W,5.83,180.0,080726,,,A*7B
$GPGGA,073135.00,4000.9404,N,10516.2300,W,1,08,1.02,1623.5,M,-21.3,M,,*57
$GPRMC,073135.00,A,4000.9404,N,10516.2300,W,5.83,180.0,080726,,,A*7C
$GPGGA,073136.00,4000.9388,N,10516.2300,W,1,08,1.02,1623.5,M,-21.3,M,,*57
$GPRMC,073136.00,A,4000.9388,N,10516.2300,W,5.83,180.0,080726,,,A*7C
$GPGGA,073137.00,4000.9372,N,10516.2300,W,1,08,1.02,1623.5,M,-21.3,M,,*53
$GPRMC,073137.00,A,4000.9372,N,10516.2300,W,5.83,180.0,080726,,,A*78
$GPGGA,073138.00,4000.9356,N,10516.2300,W,1,08,1.02,1623.5,M,-21.3,M,,*5A
$GPRMC,073138.00,A,4000.9356,N,10516.2300,W,5.83,180.0,080726,,,A*71
$GPGGA,073139.00,4000.9340,N,10516.2300,W,1,08,1.02,1623.5,M,-21.3,M,,*5C
$GPRMC,073139.00,A,4000.9340,N,10516.2300,W,5.83,180.0,080726,,,A*77
$GPGGA,073140.00,4000.9323,N,10516.2300,W,1,08,1.02,1623.5,M,-21.3,M,,*57
$GPRMC,073140.00,A,4000.9323,N,10516.2300,W,5.83,180.0,080726,,,A*7C
$GPGGA,073141.00,4000.9307,N,10516.2300,W,1,08,1.02,1623.5,M,-21.3,M,,*50
$GPRMC,073141.00,A,4000.9307,N,10516.2300,W,5.83,180.0,080726,,,A*7B
$GPGGA,073142.00,4000.9291,N,10516.2300,W,1,08,1.02,1623.5,M,-21.3,M,,*5D
$GPRMC,073142.00,A,4000.9291,N,10516.2300,W,5.83,180.0,080726,,,A*76
$GPGGA,073143.00,4000.9275,N,10516.2300,W,1,08,1.02,1623.5,M,-21.3,M,,*56
$GPRMC,073143.00,A,4000.9275,N,10516.2300,W,5.83,180.0,080726,,,A*7D
$GPGGA,073144.00,4000.9259,N,10516.2300,W,1,08,1.02,1623.6,M,-21.3,M,,*5C
$GPRMC,073144.00,A,4000.9259,N,10516.2300,W,5.83,180.0,080726,,,A*74
$GPGGA,073145.00,4000.9243,N,10516.2300,W,1,08,1.02,1623.6,M,-21.3,M,,*56
$GPRMC,073145.00,A,4000.9243,N,10516.2300,W,5.83,180.0,080726,,,A*7E
$GPGGA,073146.00,4000.9226,N,10516.2300,W,1,08,1.02,1623.6,M,-21.3,M,,*56
$GPRMC,073146.00,A,4000.9226,N,10516.2300,W,5.83,180.0,080726,,,A*7E
$GPGGA,073147.00,4000.9210,N,10516.2300,W,1,08,1.02,1623.6,M,-21.3,M,,*52
$GPRMC,073147.00,A,4000.9210,N,10516.2300,W,5.83,180.0,080726,,,A*7A
$GPGGA,073148.00,4000.9194,N,10516.2300,W,1,08,1.02,1623.6,M,-21.3,M,,*52
$GPRMC,073148.00,A,4000.9194,N,10516.2300,W,5.83,180.0,080726,,,A*7A
$GPGGA,073149.00,4000.9178,N,10516.2300,W,1,08,1.02,1623.6,M,-21.3,M,,*51
$GPRMC,073149.00,A,4000.9178,N,10516.2300,W,5.83,180.0,080726,,,A*79
$GPGGA,073150.00,4000.9162,N,10516.2300,W,1,08,1.02,1623.6,M,-21.3,M,,*52
$GPRMC,073150.00,A,4000.9162,N,10516.2300,W,5.83,180.0,080726,,,A*7A
$GPGGA,073151.00,4000.9146,N,10516.2300,W,1,08,1.02,1623.7,M,-21.3,M,,*54
$GPRMC,073151.00,A,4000.9146,N,10516.2300,W,5.83,180.0,080726,,,A*7D
$GPGGA,073152.00,4000.9129,N,10516.2300,W,1,08,1.02,1623.7,M,-21.3,M,,*5E
$GPRMC,073152.00,A,4000.9129,N,10516.2300,W,5.83,180.0,080726,,,A*77
$GPGGA,073153.00,4000.9113,N,10516.2300,W,1,08,1.02,1623.7,M,-21.3,M,,*56
$GPRMC,073153.00,A,4000.9113,N,10516.2300,W,5.83,180.0,080726,,,A*7F
$GPGGA,073154.00,4000.9097,N,10516.2300,W,1,08,1.02,1623.7,M,-21.3,M,,*5C
$GPRMC,073154.00,A,4000.9097,N,10516.2300,W,5.83,180.0,080726,,,A*75
$GPGGA,073155.00,4000.9081,N,10516.2300,W,1,08,1.02,1623.7,M,-21.3,M,,*5A
$GPRMC,073155.00,A,4000.9081,N,10516.2300,W,5.83,180.0,080726,,,A*73
$GPGGA,073156.00,4000.9065,N,10516.2300,W,1,08,1.02,1623.8,M,-21.3,M,,*5C
$GPRMC,073156.00,A,4000.9065,N,10516.2300,W,5.83,180.0,080726,,,A*7A
$GPGGA,073157.00,4000.9049,N,10516.2300,W,1,08,1.02,1623.8,M,-21.3,M,,*53
$GPRMC,073157.00,A,4000.9049,N,10516.2300,W,5.83,180.0,080726,,,A*75
$GPGGA,073158.00,4000.9032,N,10516.2300,W,1,08,1.02,1623.8,M,-21.3,M,,*50
$GPRMC,073158.00,A,4000.9032,N,10516.2300,W,5.83,180.0,080726,,,A*76
$GPGGA,073159.00,4000.9016,N,10516.2300,W,1,08,1.02,1623.8,M,-21.3,M,,*57
$GPRMC,073159.00,A,4000.9016,N,10516.2300,W,5.83,180.0,080726,,,A*71
