$GPGSV,2,1,08,05,55,120,42,07,34,210,38,13,21,300,35,15,60,045,44*7D
$GPGSV,2,2,08,18,12,090,30,20,48,270,41,24,08,180,28,30,29,330,37*7E
$GPGGA,073000.00,4000.9000,N,10516.2300,W,1,08,1.02,1624.0,M,-21.3,M,,*52
$GPRMC,073000.00,A,4000.9000,N,10516.2300,W,5.83,90.0,080726,,,A*4B
$GPGGA,073001.00,4000.9000,N,10516.2279,W,1,08,1.02,1624.0,M,-21.3,M,,*5C
$GPRMC,073001.00,A,4000.9000,N,10516.2279,W,5.83,90.0,080726,,,A*45
$GPGGA,073002.00,4000.9000,N,10516.2258,W,1,08,1.02,1624.0,M,-21.3,M,,*5C
$GPRMC,073002.00,A,4000.9000,N,10516.2258,W,5.83,90.0,080726,,,A*45
$GPGGA,073003.00,4000.9000,N,10516.2237,W,1,08,1.02,1624.0,M,-21.3,M,,*54
$GPRMC,073003.00,A,4000.9000,N,10516.2237,W,5.83,90.0,080726,,,A*4D
$GPGGA,073004.00,4000.9000,N,10516.2216,W,1,08,1.02,1624.0,M,-21.3,M,,*50
$GPRMC,073004.00,A,4000.9000,N,10516.2216,W,5.83,90.0,080726,,,A*49
$GPGGA,073005.00,4000.9000,N,10516.2195,W,1,08,1.02,1624.0,M,-21.3,M,,*59
$GPRMC,073005.00,A,4000.9000,N,10516.2195,W,5.83,90.0,080726,,,A*40
$GPGGA,073006.00,4000.9000,N,10516.2174,W,1,08,1.02,1624.0,M,-21.3,M,,*55
$GPRMC,073006.00,A,4000.9000,N,10516.2174,W,5.83,90.0,080726,,,A*4C
$GPGGA,073007.00,4000.9000,N,10516.2153,W,1,08,1.02,1624.0,M,-21.3,M,,*51
$GPRMC,073007.00,A,4000.9000,N,10516.2153,W,5.83,90.0,080726,,,A*48
$GPGGA,073008.00,4000.9000,N,10516.2132,W,1,08,1.02,1624.0,M,-21.3,M,,*59
$GPRMC,073008.00,A,4000.9000,N,10516.2132,W,5.83,90.0,080726,,,A*40
$GPGGA,073009.00,4000.9000,N,10516.2111,W,1,08,1.02,1624.0,M,-21.3,M,,*59
$GPRMC,073009.00,A,4000.9000,N,10516.2111,W,5.83,90.0,080726,,,A*40
$GPGGA,073010.00,4000.9000,N,10516.2090,W,1,08,1.02,1624.0,M,-21.3,M,,*59
$GPRMC,073010.00,A,4000.9000,N,10516.2090,W,5.83,90.0,080726,,,A*40
$GPGGA,073011.00,4000.9000,N,10516.2069,W,1,08,1.02,1624.0,M,-21.3,M,,*5E
$GPRMC,073011.00,A,4000.9000,N,10516.2069,W,5.83,90.0,080726,,,A*47
$GPGGA,073012.00,4000.9000,N,10516.2048,W,1,08,1.02,1624.0,M,-21.3,M,,*5E
$GPRMC,073012.00,A,4000.9000,N,10516.2048,W,5.83,90.0,080726,,,A*47
$GPGGA,073013.00,4000.9000,N,10516.2027,W,1,08,1.02,1624.0,M,-21.3,M,,*56
$GPRMC,073013.00,A,4000.9000,N,10516.2027,W,5.83,90.0,080726,,,A*4F
$GPGGA,073014.00,4000.9000,N,10516.2006,W,1,08,1.02,1624.0,M,-21.3,M,,*52
$GPRMC,073014.00,A,4000.9000,N,10516.2006,W,5.83,90.0,080726,,,A*4B
$GPGGA,073015.00,4000.9000,N,10516.1985,W,1,08,1.02,1624.0,M,-21.3,M,,*52
$GPRMC,073015.00,A,4000.9000,N,10516.1985,W,5.83,90.0,080726,,,A*4B
$GPGGA,073016.00,4000.9000,N,10516.1964,W,1,08,1.02,1624.0,M,-21.3,M,,*5E
$GPRMC,073016.00,A,4000.9000,N,10516.1964,W,5.83,90.0,080726,,,A*47
$GPGGA,073017.00,4000.9000,N,10516.1943,W,1,08,1.02,1624.0,M,-21.3,M,,*5A
$GPRMC,073017.00,A,4000.9000,N,10516.1943,W,5.83,90.0,080726,,,A*43
$GPGGA,073018.00,4000.9000,N,10516.1922,W,1,08,1.02,1624.0,M,-21.3,M,,*52
$GPRMC,073018.00,A,4000.9000,N,10516.1922,W,5.83,90.0,080726,,,A*4B
$GPGGA,073019.00,4000.9000,N,10516.1901,W,1,08,1.02,1624.0,M,-21.3,M,,*52
$GPRMC,073019.00,A,4000.9000,N,10516.1901,W,5.83,90.0,080726,,,A*4B
$GPGGA,073020.00,4000.9000,N,10516.1880,W,1,08,1.02,1624.0,M,-21.3,M,,*50
$GPRMC,073020.00,A,4000.9000,N,10516.1880,W,5.83,90.0,080726,,,A*49
$GPGGA,073021.00,4000.9000,N,10516.1859,W,1,08,1.02,1624.0,M,-21.3,M,,*55
$GPRMC,073021.00,A,4000.9000,N,10516.1859,W,5.83,90.0,080726,,,A*4C
$GPGGA,073022.00,4000.9000,N,10516.1838,W,1,08,1.02,1624.0,M,-21.3,M,,*51
$GPRMC,073022.00,A,4000.9000,N,10516.1838,W,5.83,90.0,080726,,,A*48
$GPGGA,073023.00,4000.9000,N,10516.1817,W,1,08,1.02,1624.0,M,-21.3,M,,*5D
$GPRMC,073023.00,A,4000.9000,N,10516.1817,W,5.83,90.0,080726,,,A*44
$GPGGA,073024.00,4000.9000,N,10516.1796,W,1,08,1.02,1624.0,M,-21.3,M,,*5C
$GPRMC,073024.00,A,4000.9000,N,10516.1796,W,5.83,90.0,080726,,,A*45
$GPGGA,073025.00,4000.9000,N,10516.1775,W,1,08,1.02,1624.0,M,-21.3,M,,*50
$GPRMC,073025.00,A,4000.9000,N,10516.1775,W,5.83,90.0,080726,,,A*49
$GPGGA,073026.00,4000.9000,N,10516.1754,W,1,08,1.02,1624.0,M,-21.3,M,,*50
$GPRMC,073026.00,A,4000.9000,N,10516.1754,W,5.83,90.0,080726,,,A*49
$GPGGA,073027.00,4000.9000,N,10516.1733,W,1,08,1.02,1624.0,M,-21.3,M,,*50
$GPRMC,073027.00,A,4000.9000,N,10516.1733,W,5.83,90.0,080726,,,A*49
$GPGGA,073028.00,4000.9000,N,10516.1712,W,1,08,1.02,1624.0,M,-21.3,M,,*5C
$GPRMC,073028.00,A,4000.9000,N,10516.1712,W,5.83,90.0,080726,,,A*45
$GPGGA,073029.00,4000.9000,N,10516.1691,W,1,08,1.02,1624.0,M,-21.3,M,,*57
$GPRMC,073029.00,A,4000.9000,N,10516.1691,W,5.83,90.0,080726,,,A*4E
$GPGGA,073030.00,4000.9000,N,10516.1670,W,1,08,1.02,1624.0,M,-21.3,M,,*50
$GPRMC,073030.00,A,4000.9000,N,10516.1670,W,5.83,90.0,080726,,,A*49
$GPGGA,073031.00,4000.9000,N,10516.1649,W,1,08,1.02,1624.0,M,-21.3,M,,*5B
$GPRMC,073031.00,A,4000.9000,N,10516.1649,W,5.83,90.0,080726,,,A*42
$GPGGA,073032.00,4000.9000,N,10516.1628,W,1,08,1.02,1624.0,M,-21.3,M,,*5F
$GPRMC,073032.00,A,4000.9000,N,10516.1628,W,5.83,90.0,080726,,,A*46
$GPGGA,073033.00,4000.9000,N,10516.1607,W,1,08,1.02,1624.0,M,-21.3,M,,*53
$GPRMC,073033.00,A,4000.9000,N,10516.1607,W,5.83,90.0,080726,,,A*4A
$GPGGA,073034.00,4000.9000,N,10516.1586,W,1,08,1.02,1624.0,M,-21.3,M,,*5E
$GPRMC,073034.00,A,4000.9000,N,10516.1586,W,5.83,90.0,080726,,,A*47
$GPGGA,073035.00,4000.9000,N,10516.1565,W,1,08,1.02,1624.0,M,-21.3,M,,*52
$GPRMC,073035.00,A,4000.9000,N,10516.1565,W,5.83,90.0,080726,,,A*4B
$GPGGA,073036.00,4000.9000,N,10516.1544,W,1,08,1.02,1624.0,M,-21.3,M,,*52
$GPRMC,073036.00,A,4000.9000,N,10516.1544,W,5.83,90.0,080726,,,A*4B
$GPGGA,073037.00,4000.9000,N,10516.1523,W,1,08,1.02,1624.0,M,-21.3,M,,*52
$GPRMC,073037.00,A,4000.9000,N,10516.1523,W,5.83,90.0,080726,,,A*4B
$GPGGA,073038.00,4000.9000,N,10516.1502,W,1,08,1.02,1624.0,M,-21.3,M,,*5E
$GPRMC,073038.00,A,4000.9000,N,10516.1502,W,5.83,90.0,080726,,,A*47
$GPGGA,073039.00,4000.9000,N,10516.1481,W,1,08,1.02,1624.0,M,-21.3,M,,*55
$GPRMC,073039.00,A,4000.9000,N,10516.1481,W,5.83,90.0,080726,,,A*4C
$GPGGA,073040.00,,,,,0,00,99.99,,,,,,*66
$GPRMC,073040.00,V,,,,,,,080726,,,N*76
$GPGGA,073041.00,,,,,0,00,99.99,,,,,,*67
$GPRMC,073041.00,V,,,,,,,080726,,,N*77
$GPGGA,073042.00,,,,,0,00,99.99,,,,,,*64
$GPRMC,073042.00,V,,,,,,,080726,,,N*74
$GPGGA,073043.00,,,,,0,00,99.99,,,,,,*65
$GPRMC,073043.00,V,,,,,,,080726,,,N*75
$GPGGA,073044.00,,,,,0,00,99.99,,,,,,*62
$GPRMC,073044.00,V,,,,,,,080726,,,N*72
$GPGGA,073045.00,,,,,0,00,99.99,,,,,,*63
$GPRMC,073045.00,V,,,,,,,080726,,,N*73
$GPGGA,073046.00,,,,,0,00,99.99,,,,,,*60
$GPRMC,073046.00,V,,,,,,,080726,,,N*70
$GPGGA,073047.00,,,,,0,00,99.99,,,,,,*61
$GPRMC,073047.00,V,,,,,,,080726,,,N*71
$GPGGA,073048.00,,,,,0,00,99.99,,,,,,*6E
$GPRMC,073048.00,V,,,,,,,080726,,,N*7E
$GPGGA,073049.00,,,,,0,00,99.99,,,,,,*6F
$GPRMC,073049.00,V,,,,,,,080726,,,N*7F
$GPGGA,073050.00,,,,,0,00,99.99,,,,,,*67
$GPRMC,073050.00,V,,,,,,,080726,,,N*77
$GPGGA,073051.00,,,,,0,00,99.99,,,,,,*66
$GPRMC,073051.00,V,,,,,,,080726,,,N*76
$GPGGA,073052.00,,,,,0,00,99.99,,,,,,*65
$GPRMC,073052.00,V,,,,,,,080726,,,N*75
$GPGGA,073053.00,,,,,0,00,99.99,,,,,,*64
$GPRMC,073053.00,V,,,,,,,080726,,,N*74
$GPGGA,073054.00,,,,,0,00,99.99,,,,,,*63
$GPRMC,073054.00,V,,,,,,,080726,,,N*73
$GPGGA,073055.00,,,,,0,00,99.99,,,,,,*62
$GPRMC,073055.00,V,,,,,,,080726,,,N*72
$GPGGA,073056.00,,,,,0,00,99.99,,,,,,*61
$GPRMC,073056.00,V,,,,,,,080726,,,N*71
$GPGGA,073057.00,,,,,0,00,99.99,,,,,,*60
$GPRMC,073057.00,V,,,,,,,080726,,,N*70
$GPGGA,073058.00,,,,,0,00,99.99,,,,,,*6F
$GPRMC,073058.00,V,,,,,,,080726,,,N*7F
$GPGGA,073059.00,,,,,0,00,99.99,,,,,,*6E
$GPRMC,073059.00,V,,,,,,,080726,,,N*7E
$GPGGA,073100.00,,,,,0,00,99.99,,,,,,*63
$GPRMC,073100.00,V,,,,,,,080726,,,N*73
$GPGGA,073101.00,,,,,0,00,99.99,,,,,,*62
$GPRMC,073101.00,V,,,,,,,080726,,,N*72
$GPGGA,073102.00,,,,,0,00,99.99,,,,,,*61
$GPRMC,073102.00,V,,,,,,,080726,,,N*71
$GPGGA,073103.00,,,,,0,00,99.99,,,,,,*60
$GPRMC,073103.00,V,,,,,,,080726,,,N*70
$GPGGA,073104.00,,,,,0,00,99.99,,,,,,*67
$GPRMC,073104.00,V,,,,,,,080726,,,N*77
$GPGGA,073105.00,,,,,0,00,99.99,,,,,,*66
$GPRMC,073105.00,V,,,,,,,080726,,,N*76
$GPGGA,073106.00,,,,,0,00,99.99,,,,,,*65
$GPRMC,073106.00,V,,,,,,,080726,,,N*75
$GPGGA,073107.00,,,,,0,00,99.99,,,,,,*64
$GPRMC,073107.00,V,,,,,,,080726,,,N*74
$GPGGA,073108.00,,,,,0,00,99.99,,,,,,*6B
$GPRMC,073108.00,V,,,,,,,080726,,,N*7B
$GPGGA,073109.00,,,,,0,00,99.99,,,,,,*6A
$GPRMC,073109.00,V,,,,,,,080726,,,N*7A
$GPGGA,073110.00,,,,,0,00,99.99,,,,,,*62
$GPRMC,073110.00,V,,,,,,,080726,,,N*72
$GPGGA,073111.00,,,,,0,00,99.99,,,,,,*63
$GPRMC,073111.00,V,,,,,,,080726,,,N*73
$GPGGA,073112.00,,,,,0,00,99.99,,,,,,*60
$GPRMC,073112.00,V,,,,,,,080726,,,N*70
$GPGGA,073113.00,,,,,0,00,99.99,,,,,,*61
$GPRMC,073113.00,V,,,,,,,080726,,,N*71
$GPGGA,073114.00,,,,,0,00,99.99,,,,,,*66
$GPRMC,073114.00,V,,,,,,,080726,,,N*76
$GPGGA,073115.00,,,,,0,00,99.99,,,,,,*67
$GPRMC,073115.00,V,,,,,,,080726,,,N*77
$GPGGA,073116.00,,,,,0,00,99.99,,,,,,*64
$GPRMC,073116.00,V,,,,,,,080726,,,N*74
$GPGGA,073117.00,,,,,0,00,99.99,,,,,,*65
$GPRMC,073117.00,V,,,,,,,080726,,,N*75
$GPGGA,073118.00,,,,,0,00,99.99,,,,,,*6A
$GPRMC,073118.00,V,,,,,,,080726,,,N*7A
$GPGGA,073119.00,,,,,0,00,99.99,,,,,,*6B
$GPRMC,073119.00,V,,,,,,,080726,,,N*7B
$GPGGA,073120.00,4000.9000,N,10516.0620,W,1,08,1.02,1624.0,M,-21.3,M,,*54
$GPRMC,073120.00,A,4000.9000,N,10516.0620,W,5.83,90.0,080726,,,A*4D
$GPGGA,073121.00,4000.9000,N,10516.0599,W,1,08,1.02,1624.0,M,-21.3,M,,*54
$GPRMC,073121.00,A,4000.9000,N,10516.0599,W,5.83,90.0,080726,,,A*4D
$GPGGA,073122.00,4000.9000,N,10516.0578,W,1,08,1.02,1624.0,M,-21.3,M,,*58
$GPRMC,073122.00,A,4000.9000,N,10516.0578,W,5.83,90.0,080726,,,A*41
$GPGGA,073123.00,4000.9000,N,10516.0557,W,1,08,1.02,1624.0,M,-21.3,M,,*54
$GPRMC,073123.00,A,4000.9000,N,10516.0557,W,5.83,90.0,080726,,,A*4D
$GPGGA,073124.00,4000.9000,N,10516.0536,W,1,08,1.02,1624.0,M,-21.3,M,,*54
$GPRMC,073124.00,A,4000.9000,N,10516.0536,W,5.83,90.0,080726,,,A*4D
$GPGGA,073125.00,4000.9000,N,10516.0515,W,1,08,1.02,1624.0,M,-21.3,M,,*54
$GPRMC,073125.00,A,4000.9000,N,10516.0515,W,5.83,90.0,080726,,,A*4D
$GPGGA,073126.00,4000.9000,N,10516.0494,W,1,08,1.02,1624.0,M,-21.3,M,,*5F
$GPRMC,073126.00,A,4000.9000,N,10516.0494,W,5.83,90.0,080726,,,A*46
$GPGGA,073127.00,4000.9000,N,10516.0473,W,1,08,1.02,1624.0,M,-21.3,M,,*57
$GPRMC,073127.00,A,4000.9000,N,10516.0473,W,5.83,90.0,080726,,,A*4E
$GPGGA,073128.00,4000.9000,N,10516.0452,W,1,08,1.02,1624.0,M,-21.3,M,,*5B
$GPRMC,073128.00,A,4000.9000,N,10516.0452,W,5.83,90.0,080726,,,A*42
$GPGGA,073129.00,4000.9000,N,10516.0431,W,1,08,1.02,1624.0,M,-21.3,M,,*5F
$GPRMC,073129.00,A,4000.9000,N,10516.0431,W,5.83,90.0,080726,,,A*46
$GPGGA,073130.00,4000.9000,N,10516.0410,W,1,08,1.02,1624.0,M,-21.3,M,,*54
$GPRMC,073130.00,A,4000.9000,N,10516.0410,W,5.83,90.0,080726,,,A*4D
$GPGGA,073131.00,4000.9000,N,10516.0389,W,1,08,1.02,1624.0,M,-21.3,M,,*52
$GPRMC,073131.00,A,4000.9000,N,10516.0389,W,5.83,90.0,080726,,,A*4B
$GPGGA,073132.00,4000.9000,N,10516.0368,W,1,08,1.02,1624.0,M,-21.3,M,,*5E
$GPRMC,073132.00,A,4000.9000,N,10516.0368,W,5.83,90.0,080726,,,A*47
$GPGGA,073133.00,4000.9000,N,10516.0347,W,1,08,1.02,1624.0,M,-21.3,M,,*52
$GPRMC,073133.00,A,4000.9000,N,10516.0347,W,5.83,90.0,080726,,,A*4B
$GPGGA,073134.00,4000.9000,N,10516.0326,W,1,08,1.02,1624.0,M,-21.3,M,,*52
$GPRMC,073134.00,A,4000.9000,N,10516.0326,W,5.83,90.0,080726,,,A*4B
$GPGGA,073135.00,4000.9000,N,10516.0305,W,1,08,1.02,1624.0,M,-21.3,M,,*52
$GPRMC,073135.00,A,4000.9000,N,10516.0305,W,5.83,90.0,080726,,,A*4B
$GPGGA,073136.00,4000.9000,N,10516.0284,W,1,08,1.02,1624.0,M,-21.3,M,,*59
$GPRMC,073136.00,A,4000.9000,N,10516.0284,W,5.83,90.0,080726,,,A*40
$GPGGA,073137.00,4000.9000,N,10516.0263,W,1,08,1.02,1624.0,M,-21.3,M,,*51
$GPRMC,073137.00,A,4000.9000,N,10516.0263,W,5.83,90.0,080726,,,A*48
$GPGGA,073138.00,4000.9000,N,10516.0242,W,1,08,1.02,1624.0,M,-21.3,M,,*5D
$GPRMC,073138.00,A,4000.9000,N,10516.0242,W,5.83,90.0,080726,,,A*44
$GPGGA,073139.00,4000.9000,N,10516.0221,W,1,08,1.02,1624.0,M,-21.3,M,,*59
$GPRMC,073139.00,A,4000.9000,N,10516.0221,W,5.83,90.0,080726,,,A*40
$GPGGA,073140.00,4000.9000,N,10516.0200,W,1,08,1.02,1624.0,M,-21.3,M,,*54
$GPRMC,073140.00,A,4000.9000,N,10516.0200,W,5.83,90.0,080726,,,A*4D
$GPGGA,073141.00,4000.9000,N,10516.0179,W,1,08,1.02,1624.0,M,-21.3,M,,*58
$GPRMC,073141.00,A,4000.9000,N,10516.0179,W,5.83,90.0,080726,,,A*41
$GPGGA,073142.00,4000.9000,N,10516.0158,W,1,08,1.02,1624.0,M,-21.3,M,,*58
$GPRMC,073142.00,A,4000.9000,N,10516.0158,W,5.83,90.0,080726,,,A*41
$GPGGA,073143.00,4000.9000,N,10516.0137,W,1,08,1.02,1624.0,M,-21.3,M,,*50
$GPRMC,073143.00,A,4000.9000,N,10516.0137,W,5.83,90.0,080726,,,A*49
$GPGGA,073144.00,4000.9000,N,10516.0116,W,1,08,1.02,1624.0,M,-21.3,M,,*54
$GPRMC,073144.00,A,4000.9000,N,10516.0116,W,5.83,90.0,080726,,,A*4D
$GPGGA,073145.00,4000.9000,N,10516.0095,W,1,08,1.02,1624.0,M,-21.3,M,,*5F
$GPRMC,073145.00,A,4000.9000,N,10516.0095,W,5.83,90.0,080726,,,A*46
$GPGGA,073146.00,4000.9000,N,10516.0074,W,1,08,1.02,1624.0,M,-21.3,M,,*53
$GPRMC,073146.00,A,4000.9000,N,10516.0074,W,5.83,90.0,080726,,,A*4A
$GPGGA,073147.00,4000.9000,N,10516.0053,W,1,08,1.02,1624.0,M,-21.3,M,,*57
$GPRMC,073147.00,A,4000.9000,N,10516.0053,W,5.83,90.0,080726,,,A*4E
$GPGGA,073148.00,4000.9000,N,10516.0032,W,1,08,1.02,1624.0,M,-21.3,M,,*5F
$GPRMC,073148.00,A,4000.9000,N,10516.0032,W,5.83,90.0,080726,,,A*46
$GPGGA,073149.00,4000.9000,N,10516.0011,W,1,08,1.02,1624.0,M,-21.3,M,,*5F
$GPRMC,073149.00,A,4000.9000,N,10516.0011,W,5.83,90.0,080726,,,A*46
$GPGGA,073150.00,4000.9000,N,10515.9990,W,1,08,1.02,1624.0,M,-21.3,M,,*5D
$GPRMC,073150.00,A,4000.9000,N,10515.9990,W,5.83,90.0,080726,,,A*44
$GPGGA,073151.00,4000.9000,N,10515.9969,W,1,08,1.02,1624.0,M,-21.3,M,,*5A
$GPRMC,073151.00,A,4000.9000,N,10515.9969,W,5.83,90.0,080726,,,A*43
$GPGGA,073152.00,4000.9000,N,10515.9948,W,1,08,1.02,1624.0,M,-21.3,M,,*5A
$GPRMC,073152.00,A,4000.9000,N,10515.9948,W,5.83,90.0,080726,,,A*43
$GPGGA,073153.00,4000.9000,N,10515.9927,W,1,08,1.02,1624.0,M,-21.3,M,,*52
$GPRMC,073153.00,A,4000.9000,N,10515.9927,W,5.83,90.0,080726,,,A*4B
$GPGGA,073154.00,4000.9000,N,10515.9906,W,1,08,1.02,1624.0,M,-21.3,M,,*56
$GPRMC,073154.00,A,4000.9000,N,10515.9906,W,5.83,90.0,080726,,,A*4F
$GPGGA,073155.00,4000.9000,N,10515.9885,W,1,08,1.02,1624.0,M,-21.3,M,,*5D
$GPRMC,073155.00,A,4000.9000,N,10515.9885,W,5.83,90.0,080726,,,A*44
$GPGGA,073156.00,4000.9000,N,10515.9864,W,1,08,1.02,1624.0,M,-21.3,M,,*51
$GPRMC,073156.00,A,4000.9000,N,10515.9864,W,5.83,90.0,080726,,,A*48
$GPGGA,073157.00,4000.9000,N,10515.9843,W,1,08,1.02,1624.0,M,-21.3,M,,*55
$GPRMC,073157.00,A,4000.9000,N,10515.9843,W,5.83,90.0,080726,,,A*4C
$GPGGA,073158.00,4000.9000,N,10515.9822,W,1,08,1.02,1624.0,M,-21.3,M,,*5D
$GPRMC,073158.00,A,4000.9000,N,10515.9822,W,5.83,90.0,080726,,,A*44
$GPGGA,073159.00,4000.9000,N,10515.9801,W,1,08,1.02,1624.0,M,-21.3,M,,*5D
$GPRMC,073159.00,A,4000.9000,N,10515.9801,W,5.83,90.0,080726,,,A*44
